{"type": "FeatureCollection", "features": [ {"type": "Feature", "properties": {"norad_id": 30557, "name": "FENGYUN 1C DEB", "group": "fengyun-1c-debris", "lat": 33.98850158320923, "lon": 44.878047203679664, "alt_km": 900.4523713035305, "timestamp": "2025-12-11T18:59:46.350594+00:00", "meta": {"OBJECT_NAME": "FENGYUN 1C DEB", "OBJECT_ID": "1999-025AKX", "EPOCH": "2025-12-11T03:30:44.983872", "MEAN_MOTION": 14.1078549, "ECCENTRICITY": 0.00680183, "INCLINATION": 98.9203, "RA_OF_ASC_NODE": 50.3162, "ARG_OF_PERICENTER": 237.0031, "MEAN_ANOMALY": 122.4591, "EPHEMERIS_TYPE": 0, "CLASSIFICATION_TYPE": "U", "NORAD_CAT_ID": 30557, "ELEMENT_SET_NO": 999, "REV_AT_EPOCH": 96278, "BSTAR": 0.0019204503, "MEAN_MOTION_DOT": 3.469e-05, "MEAN_MOTION_DDOT": 0}, "tle": {"line1": "1 30557U 99025AKX 25345.14635398  .00003469  00000+0  19205-2 0  9993", "line2": "2 30557  98.9203  50.3162 0068018 237.0031 122.4591 14.10785490962784"}}, "geometry": {"type": "Point", "coordinates": [44.878047203679664, 33.98850158320923]}}, {"type": "Feature", "properties": {"norad_id": 30558, "name": "FENGYUN 1C DEB", "group": "fengyun-1c-debris", "lat": 42.42383367380139, "lon": 118.04546880829677, "alt_km": 1336.339034293358, "timestamp": "2025-12-11T18:59:46.350604+00:00", "meta": {"OBJECT_NAME": "FENGYUN 1C DEB", "OBJECT_ID": "1999-025AKY", "EPOCH": "2025-12-09T16:09:58.996800", "MEAN_MOTION": 13.28486111, "ECCENTRICITY": 0.04256851, "INCLINATION": 99.4674, "RA_OF_ASC_NODE": 124.8713, "ARG_OF_PERICENTER": 280.5886, "MEAN_ANOMALY": 74.757, "EPHEMERIS_TYPE": 0, "CLASSIFICATION_TYPE": "U", "NORAD_CAT_ID": 30558, "ELEMENT_SET_NO": 999, "REV_AT_EPOCH": 90717, "BSTAR": 0.0051946283, "MEAN_MOTION_DOT": 3.853e-05, "MEAN_MOTION_DDOT": 0}, "tle": {"line1": "1 30558U 99025AKY 25343.67359950  .00003853  00000+0  51946-2 0  9992", "line2": "2 30558  99.4674 124.8713 0425685 280.5886  74.7570 13.28486111907174"}}, "geometry": {"type": "Point", "coordinates": [118.04546880829677, 42.42383367380139]}}, {"type": "Feature", "properties": {"norad_id": 30560, "name": "FENGYUN 1C DEB", "group": "fengyun-1c-debris", "lat": 54.54072497002274, "lon": 171.91742685200904, "alt_km": 829.2862392504767, "timestamp": "2025-12-11T18:59:46.350615+00:00", "meta": {"OBJECT_NAME": "FENGYUN 1C DEB", "OBJECT_ID": "1999-025ALA", "EPOCH": "2025-12-11T06:37:06.573792", "MEAN_MOTION": 14.17024358, "ECCENTRICITY": 0.01148441, "INCLINATION": 98.6636, "RA_OF_ASC_NODE": 339.0537, "ARG_OF_PERICENTER": 215.9449, "MEAN_ANOMALY": 160.3798, "EPHEMERIS_TYPE": 0, "CLASSIFICATION_TYPE": "U", "NORAD_CAT_ID": 30560, "ELEMENT_SET_NO": 999, "REV_AT_EPOCH": 97348, "BSTAR": 0.00041188118, "MEAN_MOTION_DOT": 8.4e-06, "MEAN_MOTION_DDOT": 0}, "tle": {"line1": "1 30560U 99025ALA 25345.27577053  .00000840  00000+0  41188-3 0  9990", "line2": "2 30560  98.6636 339.0537 0114844 215.9449 160.3798 14.17024358973480"}}, "geometry": {"type": "Point", "coordinates": [171.91742685200904, 54.54072497002274]}}, {"type": "Feature", "properties": {"norad_id": 30561, "name": "FENGYUN 1C DEB", "group": "fengyun-1c-debris", "lat": -64.22599922808963, "lon": 149.40963988654235, "alt_km": 889.6534158375034, "timestamp": "2025-12-11T18:59:46.350625+00:00", "meta": {"OBJECT_NAME": "FENGYUN 1C DEB", "OBJECT_ID": "1999-025ALB", "EPOCH": "2025-12-10T18:51:57.091680", "MEAN_MOTION": 14.11267869, "ECCENTRICITY": 0.00606378, "INCLINATION": 98.7249, "RA_OF_ASC_NODE": 346.9764, "ARG_OF_PERICENTER": 119.4538, "MEAN_ANOMALY": 60.2985, "EPHEMERIS_TYPE": 0, "CLASSIFICATION_TYPE": "U", "NORAD_CAT_ID": 30561, "ELEMENT_SET_NO": 999, "REV_AT_EPOCH": 96950, "BSTAR": 0.00044060257, "MEAN_MOTION_DOT": 7.67e-06, "MEAN_MOTION_DDOT": 0}, "tle": {"line1": "1 30561U 99025ALB 25344.78607745  .00000767  00000+0  44060-3 0  9998", "line2": "2 30561  98.7249 346.9764 0060637 119.4538  60.2985 14.11267869969502"}}, "geometry": {"type": "Point", "coordinates": [149.40963988654235, -64.22599922808963]}}, {"type": "Feature", "properties": {"norad_id": 30562, "name": "FENGYUN 1C DEB", "group": "fengyun-1c-debris", "lat": 70.6083294213733, "lon": 27.5524453911193, "alt_km": 849.0949530079188, "timestamp": "2025-12-11T18:59:46.350636+00:00", "meta": {"OBJECT_NAME": "FENGYUN 1C DEB", "OBJECT_ID": "1999-025ALC", "EPOCH": "2025-12-11T03:46:10.308864", "MEAN_MOTION": 14.23035912, "ECCENTRICITY": 0.00589686, "INCLINATION": 98.763, "RA_OF_ASC_NODE": 52.9107, "ARG_OF_PERICENTER": 269.9437, "MEAN_ANOMALY": 154.1525, "EPHEMERIS_TYPE": 0, "CLASSIFICATION_TYPE": "U", "NORAD_CAT_ID": 30562, "ELEMENT_SET_NO": 999, "REV_AT_EPOCH": 96977, "BSTAR": 0.0023162613, "MEAN_MOTION_DOT": 5.273e-05, "MEAN_MOTION_DDOT": 0}, "tle": {"line1": "1 30562U 99025ALC 25345.15706376  .00005273  00000+0  23163-2 0  9998", "line2": "2 30562  98.7630  52.9107 0058968 269.9437 154.1525 14.23035912969772"}}, "geometry": {"type": "Point", "coordinates": [27.5524453911193, 70.6083294213733]}}, {"type": "Feature", "properties": {"norad_id": 30564, "name": "FENGYUN 1C DEB", "group": "fengyun-1c-debris", "lat": 61.65517015807855, "lon": -19.072737851040184, "alt_km": 788.8773148773244, "timestamp": "2025-12-11T18:59:46.350646+00:00", "meta": {"OBJECT_NAME": "FENGYUN 1C DEB", "OBJECT_ID": "1999-025ALE", "EPOCH": "2025-12-10T19:36:26.583840", "MEAN_MOTION": 14.05742993, "ECCENTRICITY": 0.02029897, "INCLINATION": 98.7961, "RA_OF_ASC_NODE": 356.6604, "ARG_OF_PERICENTER": 124.247, "MEAN_ANOMALY": 51.6482, "EPHEMERIS_TYPE": 0, "CLASSIFICATION_TYPE": "U", "NORAD_CAT_ID": 30564, "ELEMENT_SET_NO": 999, "REV_AT_EPOCH": 96268, "BSTAR": 0.00071784677, "MEAN_MOTION_DOT": 1.369e-05, "MEAN_MOTION_DDOT": 0}, "tle": {"line1": "1 30564U 99025ALE 25344.81697435  .00001369  00000+0  71785-3 0  9993", "line2": "2 30564  98.7961 356.6604 0202989 124.2470  51.6482 14.05742993962681"}}, "geometry": {"type": "Point", "coordinates": [-19.072737851040184, 61.65517015807855]}}, {"type": "Feature", "properties": {"norad_id": 30565, "name": "FENGYUN 1C DEB", "group": "fengyun-1c-debris", "lat": -24.674759286907662, "lon": 32.1542620509602, "alt_km": 958.03786012602, "timestamp": "2025-12-11T18:59:46.350657+00:00", "meta": {"OBJECT_NAME": "FENGYUN 1C DEB", "OBJECT_ID": "1999-025ALF", "EPOCH": "2025-12-10T14:54:00.086112", "MEAN_MOTION": 14.09913502, "ECCENTRICITY": 0.0143148, "INCLINATION": 98.4526, "RA_OF_ASC_NODE": 214.9712, "ARG_OF_PERICENTER": 2.2761, "MEAN_ANOMALY": 24.641, "EPHEMERIS_TYPE": 0, "CLASSIFICATION_TYPE": "U", "NORAD_CAT_ID": 30565, "ELEMENT_SET_NO": 999, "REV_AT_EPOCH": 95897, "BSTAR": 0.0026611, "MEAN_MOTION_DOT": 5.117e-05, "MEAN_MOTION_DDOT": 0}, "tle": {"line1": "1 30565U 99025ALF 25344.62083433  .00005117  00000+0  26611-2 0  9992", "line2": "2 30565  98.4526 214.9712 0143148   2.2761  24.6410 14.09913502958979"}}, "geometry": {"type": "Point", "coordinates": [32.1542620509602, -24.674759286907662]}}, {"type": "Feature", "properties": {"norad_id": 30566, "name": "FENGYUN 1C DEB", "group": "fengyun-1c-debris", "lat": 40.218010646436355, "lon": -137.80525814661834, "alt_km": 815.646453439459, "timestamp": "2025-12-11T18:59:46.350667+00:00", "meta": {"OBJECT_NAME": "FENGYUN 1C DEB", "OBJECT_ID": "1999-025ALG", "EPOCH": "2025-12-10T01:48:50.048928", "MEAN_MOTION": 14.11666524, "ECCENTRICITY": 0.00683784, "INCLINATION": 99.2163, "RA_OF_ASC_NODE": 32.5418, "ARG_OF_PERICENTER": 189.4574, "MEAN_ANOMALY": 234.5717, "EPHEMERIS_TYPE": 0, "CLASSIFICATION_TYPE": "U", "NORAD_CAT_ID": 30566, "ELEMENT_SET_NO": 999, "REV_AT_EPOCH": 96345, "BSTAR": 0.0019704943, "MEAN_MOTION_DOT": 3.619e-05, "MEAN_MOTION_DDOT": 0}, "tle": {"line1": "1 30566U 99025ALG 25344.07557927  .00003619  00000+0  19705-2 0  9997", "line2": "2 30566  99.2163  32.5418 0068378 189.4574 234.5717 14.11666524963457"}}, "geometry": {"type": "Point", "coordinates": [-137.80525814661834, 40.218010646436355]}}, {"type": "Feature", "properties": {"norad_id": 30567, "name": "FENGYUN 1C DEB", "group": "fengyun-1c-debris", "lat": 72.49667568244581, "lon": -174.1674895515475, "alt_km": 850.938411010231, "timestamp": "2025-12-11T18:59:46.350678+00:00", "meta": {"OBJECT_NAME": "FENGYUN 1C DEB", "OBJECT_ID": "1999-025ALH", "EPOCH": "2025-12-11T05:09:23.154912", "MEAN_MOTION": 14.08895949, "ECCENTRICITY": 0.01086727, "INCLINATION": 98.7757, "RA_OF_ASC_NODE": 335.9422, "ARG_OF_PERICENTER": 193.6257, "MEAN_ANOMALY": 229.5969, "EPHEMERIS_TYPE": 0, "CLASSIFICATION_TYPE": "U", "NORAD_CAT_ID": 30567, "ELEMENT_SET_NO": 999, "REV_AT_EPOCH": 96752, "BSTAR": 0.00043236377, "MEAN_MOTION_DOT": 7.46e-06, "MEAN_MOTION_DDOT": 0}, "tle": {"line1": "1 30567U 99025ALH 25345.21485133  .00000746  00000+0  43236-3 0  9999", "line2": "2 30567  98.7757 335.9422 0108672 193.6257 229.5969 14.08895949967529"}}, "geometry": {"type": "Point", "coordinates": [-174.1674895515475, 72.49667568244581]}}, {"type": "Feature", "properties": {"norad_id": 30568, "name": "FENGYUN 1C DEB", "group": "fengyun-1c-debris", "lat": -11.997742031796498, "lon": -26.009131929046877, "alt_km": 701.809484758086, "timestamp": "2025-12-11T18:59:46.350688+00:00", "meta": {"OBJECT_NAME": "FENGYUN 1C DEB", "OBJECT_ID": "1999-025ALJ", "EPOCH": "2025-12-10T10:53:08.523168", "MEAN_MOTION": 14.5504619, "ECCENTRICITY": 0.00164046, "INCLINATION": 98.9429, "RA_OF_ASC_NODE": 154.4779, "ARG_OF_PERICENTER": 201.2006, "MEAN_ANOMALY": 186.4048, "EPHEMERIS_TYPE": 0, "CLASSIFICATION_TYPE": "U", "NORAD_CAT_ID": 30568, "ELEMENT_SET_NO": 999, "REV_AT_EPOCH": 97626, "BSTAR": 0.0053963367, "MEAN_MOTION_DOT": 0.00023331, "MEAN_MOTION_DDOT": 0}, "tle": {"line1": "1 30568U 99025ALJ 25344.45357087  .00023331  00000+0  53963-2 0  9993", "line2": "2 30568  98.9429 154.4779 0016404 201.2006 186.4048 14.55046190976264"}}, "geometry": {"type": "Point", "coordinates": [-26.009131929046877, -11.997742031796498]}}]}